[{"OBJECT_NAME":"STARLINK-35416","OBJECT_ID":"2025-245Q","EPOCH":"2026-03-09T20:48:09.306432","MEAN_MOTION":15.30244737,"ECCENTRICITY":0.00016047,"INCLINATION":53.1591,"RA_OF_ASC_NODE":283.0705,"ARG_OF_PERICENTER":57.4199,"MEAN_ANOMALY":302.6957,"EPHEMERIS_TYPE":0,"CLASSIFICATION_TYPE":"U","NORAD_CAT_ID":66248,"ELEMENT_SET_NO":999,"REV_AT_EPOCH":2122,"BSTAR":0.001032988,"MEAN_MOTION_DOT":0.00030403,"MEAN_MOTION_DDOT":0},{"OBJECT_NAME":"TRANSPORTER-1 OBJECT M","OBJECT_ID":"2021-006M","EPOCH":"2026-03-09T22:05:37.843296","MEAN_MOTION":15.3227845,"ECCENTRICITY":0.00102759,"INCLINATION":97.2377,"RA_OF_ASC_NODE":116.7915,"ARG_OF_PERICENTER":187.5492,"MEAN_ANOMALY":172.5597,"EPHEMERIS_TYPE":0,"CLASSIFICATION_TYPE":"U","NORAD_CAT_ID":47424,"ELEMENT_SET_NO":999,"REV_AT_EPOCH":28439,"BSTAR":0.00023985652,"MEAN_MOTION_DOT":7.411e-5,"MEAN_MOTION_DDOT":0}]
